[
    {
        "CCSDS_OMM_VERS": "3.0",
        "COMMENT": "GENERATED VIA SPACE-TRACK.ORG API",
        "CREATION_DATE": "2025-02-25T04:16:25",
        "ORIGINATOR": "18 SPCS",
        "OBJECT_NAME": "NAVSTAR 82 (USA 343)",
        "OBJECT_ID": "2023-009A",
        "CENTER_NAME": "EARTH",
        "REF_FRAME": "TEME",
        "TIME_SYSTEM": "UTC",
        "MEAN_ELEMENT_THEORY": "SGP4",
        "EPOCH": "2025-02-24T19:20:29.072256",
        "MEAN_MOTION": "2.00545614",
        "ECCENTRICITY": "0.00009710",
        "INCLINATION": "55.0899",
        "RA_OF_ASC_NODE": "167.2640",
        "ARG_OF_PERICENTER": "39.5557",
        "MEAN_ANOMALY": "308.9006",
        "EPHEMERIS_TYPE": "0",
        "CLASSIFICATION_TYPE": "U",
        "NORAD_CAT_ID": "55268",
        "ELEMENT_SET_NO": "999",
        "REV_AT_EPOCH": "1566",
        "BSTAR": "0.00000000000000",
        "MEAN_MOTION_DOT": "0.00000001",
        "MEAN_MOTION_DDOT": "0.0000000000000",
        "SEMIMAJOR_AXIS": "26561.936",
        "PERIOD": "718.041",
        "APOAPSIS": "20186.380",
        "PERIAPSIS": "20181.222",
        "OBJECT_TYPE": "PAYLOAD",
        "RCS_SIZE": "LARGE",
        "COUNTRY_CODE": "US",
        "LAUNCH_DATE": "2023-01-18",
        "SITE": "AFETR",
        "DECAY_DATE": null,
        "FILE": "4651315",
        "GP_ID": "281628970",
        "TLE_LINE0": "0 NAVSTAR 82 (USA 343)",
        "TLE_LINE1": "1 55268U 23009A   25055.80589204  .00000001  00000-0  00000-0 0  9994",
        "TLE_LINE2": "2 55268  55.0899 167.2640 0000971  39.5557 308.9006  2.00545614 15662"
    }
]